COMMENT,ORIGINATOR,NORAD_CAT_ID,OBJECT_NAME,OBJECT_TYPE,CLASSIFICATION_TYPE,INTLDES,EPOCH,EPOCH_MICROSECONDS,MEAN_MOTION,ECCENTRICITY,INCLINATION,RA_OF_ASC_NODE,ARG_OF_PERICENTER,MEAN_ANOMALY,EPHEMERIS_TYPE,ELEMENT_SET_NO,REV_AT_EPOCH,BSTAR,MEAN_MOTION_DOT,MEAN_MOTION_DDOT,FILE,TLE_LINE0,TLE_LINE1,TLE_LINE2,OBJECT_ID,OBJECT_NUMBER,SEMIMAJOR_AXIS,PERIOD,APOGEE,PERIGEE,DECAYED,date
GENERATED VIA SPACETRACK.ORG API,18 SPCS,48904,SPACEBEE-111,PAYLOAD,U,21059AB,2023/4/13 7:49,25088,15.29334788,0.0008944,97.5871,239.966,142.5738,217.6126,0,999,9953,0.001425,0.00040688,0,3886564,0 SPACEBEE-111,1 48904U 21059AB  23103.32587992  .00040688  00000-0  14250-2 0  9996,2 48904  97.5871 239.9660 0008944 142.5738 217.6126 15.29334788 99535,2021-059AB,48904,6855.937,94.159,483.934,471.67,0,
GENERATED VIA SPACETRACK.ORG API,18 SPCS,48904,SPACEBEE-111,PAYLOAD,U,21059AB,2023/4/14 8:56,549728,15.29430453,0.0008682,97.5881,241.0357,138.8286,221.361,0,999,9969,0.0015968,0.00045765,0,3887283,0 SPACEBEE-111,1 48904U 21059AB  23104.37272627  .00045765  00000-0  15968-2 0  9996,2 48904  97.5881 241.0357 0008682 138.8286 221.3610 15.29430453 99691,2021-059AB,48904,6855.651,94.153,483.468,471.564,0,
GENERATED VIA SPACETRACK.ORG API,18 SPCS,48904,SPACEBEE-111,PAYLOAD,U,21059AB,2023/4/14 8:56,549728,15.29430453,0.0008682,97.5881,241.0357,138.8286,221.361,0,999,9969,0.0015968,0.00045765,0,3887333,0 SPACEBEE-111,1 48904U 21059AB  23104.37272627  .00045765  00000-0  15968-2 0  9996,2 48904  97.5881 241.0357 0008682 138.8286 221.3610 15.29430453 99691,2021-059AB,48904,6855.651,94.153,483.468,471.564,0,
GENERATED VIA SPACETRACK.ORG API,18 SPCS,48904,SPACEBEE-111,PAYLOAD,U,21059AB,2023/4/15 8:29,761696,15.2952707,0.000857,97.5883,242.0372,135.8231,224.3694,0,999,9984,0.0017235,0.00049573,0,3887974,0 SPACEBEE-111,1 48904U 21059AB  23105.35408289  .00049573  00000-0  17235-2 0  9990,2 48904  97.5883 242.0372 0008570 135.8231 224.3694 15.29527070 99848,2021-059AB,48904,6855.362,94.147,483.102,471.352,0,
GENERATED VIA SPACETRACK.ORG API,18 SPCS,48904,SPACEBEE-111,PAYLOAD,U,21059AB,2023/4/15 21:03,418208,15.29581171,0.0008506,97.5883,242.5715,134.1582,226.0358,0,999,9992,0.0017439,0.00050247,0,3888056,0 SPACEBEE-111,1 48904U 21059AB  23105.87744697  .00050247  00000-0  17439-2 0  9999,2 48904  97.5883 242.5715 0008506 134.1582 226.0358 15.29581171 99921,2021-059AB,48904,6855.2,94.143,482.896,471.234,0,
GENERATED VIA SPACETRACK.ORG API,18 SPCS,48904,SPACEBEE-111,PAYLOAD,U,21059AB,2023/4/15 21:03,418208,15.29581171,0.0008506,97.5883,242.5715,134.1582,226.0358,0,999,9992,0.0017439,0.00050247,0,3888171,0 SPACEBEE-111,1 48904U 21059AB  23105.87744697  .00050247  00000-0  17439-2 0  9999,2 48904  97.5883 242.5715 0008506 134.1582 226.0358 15.29581171 99921,2021-059AB,48904,6855.2,94.143,482.896,471.234,0,
GENERATED VIA SPACETRACK.ORG API,18 SPCS,48904,SPACEBEE-111,PAYLOAD,U,21059AB,2023/4/16 8:02,417280,15.29628029,0.0008421,97.5884,243.0388,132.5249,227.6703,0,999,9999,0.0017253,0.00049778,0,3888626,0 SPACEBEE-111,1 48904U 21059AB  23106.33537520  .00049778  00000-0  17253-2 0  9997,2 48904  97.5884 243.0388 0008421 132.5249 227.6703 15.29628029 99994,2021-059AB,48904,6855.06,94.141,482.698,471.153,0,
GENERATED VIA SPACETRACK.ORG API,18 SPCS,48904,SPACEBEE-111,PAYLOAD,U,21059AB,2023/4/16 20:36,54976,15.29682852,0.0008387,97.5886,243.5731,130.6024,229.5947,0,999,10007,0.0017252,0.00049859,0,3888799,0 SPACEBEE-111,1 48904U 21059AB  23106.85870434  .00049859  00000-0  17252-2 0  9997,2 48904  97.5886 243.5731 0008387 130.6024 229.5947 15.29682852100071,2021-059AB,48904,6854.897,94.137,482.511,471.012,0,
GENERATED VIA SPACETRACK.ORG API,18 SPCS,48904,SPACEBEE-111,PAYLOAD,U,21059AB,2023/4/17 2:53,259520,15.29709632,0.0008409,97.5887,243.8403,129.9323,230.2657,0,999,10011,0.0017731,0.00051298,0,3888877,0 SPACEBEE-111,1 48904U 21059AB  23107.12036180  .00051298  00000-0  17731-2 0  9992,2 48904  97.5887 243.8403 0008409 129.9323 230.2657 15.29709632100117,2021-059AB,48904,6854.817,94.136,482.446,470.917,0,
GENERATED VIA SPACETRACK.ORG API,18 SPCS,48904,SPACEBEE-111,PAYLOAD,U,21059AB,2023/4/17 9:10,68352,15.29739533,0.0008432,97.589,244.1073,129.0923,231.1068,0,999,10015,0.0016757,0.00048503,0,3889215,0 SPACEBEE-111,1 48904U 21059AB  23107.38201468  .00048503  00000-0  16757-2 0  9995,2 48904  97.5890 244.1073 0008432 129.0923 231.1068 15.29739533100154,2021-059AB,48904,6854.727,94.134,482.372,470.812,0,
GENERATED VIA SPACETRACK.ORG API,18 SPCS,48904,SPACEBEE-111,PAYLOAD,U,21059AB,2023/4/17 21:43,597376,15.29789778,0.0008361,97.5891,244.6421,126.7025,233.4985,0,999,10023,0.0018301,0.00053092,0,3889391,0 SPACEBEE-111,1 48904U 21059AB  23107.90530784  .00053092  00000-0  18301-2 0  9995,2 48904  97.5891 244.6421 0008361 126.7025 233.4985 15.29789778100233,2021-059AB,48904,6854.577,94.131,482.173,470.711,0,
GENERATED VIA SPACETRACK.ORG API,18 SPCS,48904,SPACEBEE-111,PAYLOAD,U,21059AB,2023/4/18 7:08,964256,15.2982644,0.0008354,97.589,245.0425,125.6489,234.553,0,999,10029,0.0016793,0.00048738,0,3889492,0 SPACEBEE-111,1 48904U 21059AB  23108.29776579  .00048738  00000-0  16793-2 0  9996,2 48904  97.5890 245.0425 0008354 125.6489 234.5530 15.29826440100297,2021-059AB,48904,6854.468,94.128,482.059,470.606,0,
GENERATED VIA SPACETRACK.ORG API,18 SPCS,48904,SPACEBEE-111,PAYLOAD,U,21059AB,2023/4/18 8:42,279392,15.29832668,0.0008352,97.589,245.1093,125.4741,234.7279,0,999,10030,0.0016601,0.00048185,0,3889684,0 SPACEBEE-111,1 48904U 21059AB  23108.36317453  .00048185  00000-0  16601-2 0  9990,2 48904  97.5890 245.1093 0008352 125.4741 234.7279 15.29832668100309,2021-059AB,48904,6854.449,94.128,482.039,470.589,0,
GENERATED VIA SPACETRACK.ORG API,18 SPCS,48904,SPACEBEE-111,PAYLOAD,U,21059AB,2023/4/18 14:59,297152,15.29858609,0.0008346,97.589,245.3765,124.5367,235.6662,0,999,10034,0.0016852,0.00048959,0,3889987,0 SPACEBEE-111,1 48904U 21059AB  23108.62480668  .00048959  00000-0  16852-2 0  9995,2 48904  97.5890 245.3765 0008346 124.5367 235.6662 15.29858609100347,2021-059AB,48904,6854.372,94.126,481.957,470.516,0,
GENERATED VIA SPACETRACK.ORG API,18 SPCS,48904,SPACEBEE-111,PAYLOAD,U,21059AB,2023/4/19 8:15,164736,15.29927834,0.0008213,97.5894,246.1111,122.0307,238.1732,0,999,10045,0.0016339,0.00047557,0,3890283,0 SPACEBEE-111,1 48904U 21059AB  23109.34427274  .00047557  00000-0  16339-2 0  9992,2 48904  97.5894 246.1111 0008213 122.0307 238.1732 15.29927834100450,2021-059AB,48904,6854.165,94.122,481.659,470.401,0,
GENERATED VIA SPACETRACK.ORG API,18 SPCS,48904,SPACEBEE-111,PAYLOAD,U,21059AB,2023/4/19 8:15,164736,15.29927834,0.0008213,97.5894,246.1111,122.0307,238.1732,0,999,10045,0.0016339,0.00047557,0,3890383,0 SPACEBEE-111,1 48904U 21059AB  23109.34427274  .00047557  00000-0  16339-2 0  9992,2 48904  97.5894 246.1111 0008213 122.0307 238.1732 15.29927834100450,2021-059AB,48904,6854.165,94.122,481.659,470.401,0,
GENERATED VIA SPACETRACK.ORG API,18 SPCS,48904,SPACEBEE-111,PAYLOAD,U,21059AB,2023/4/19 22:23,657632,15.29992967,0.0008172,97.5897,246.7122,120.0096,240.1956,0,999,10054,0.0018522,0.00054076,0,3890626,0 SPACEBEE-111,1 48904U 21059AB  23109.93290113  .00054076  00000-0  18522-2 0  9997,2 48904  97.5897 246.7122 0008172 120.0096 240.1956 15.29992967100548,2021-059AB,48904,6853.97,94.118,481.436,470.234,0,
GENERATED VIA SPACETRACK.ORG API,18 SPCS,48904,SPACEBEE-111,PAYLOAD,U,21059AB,2023/4/20 7:48,624160,15.30023311,0.0008169,97.5898,247.1128,118.6756,241.5306,0,999,10060,0.0014949,0.00043609,0,3890827,0 SPACEBEE-111,1 48904U 21059AB  23110.32530815  .00043609  00000-0  14949-2 0  9997,2 48904  97.5898 247.1128 0008169 118.6756 241.5306 15.30023311100603,2021-059AB,48904,6853.88,94.116,481.344,470.146,0,
GENERATED VIA SPACETRACK.ORG API,18 SPCS,48904,SPACEBEE-111,PAYLOAD,U,21059AB,2023/4/21 4:12,664320,15.30094844,0.0008161,97.5904,247.9813,115.4208,244.7878,0,999,10073,0.0014302,0.00041801,0,3891529,0 SPACEBEE-111,1 48904U 21059AB  23111.17549380  .00041801  00000-0  14302-2 0  9993,2 48904  97.5904 247.9813 0008161 115.4208 244.7878 15.30094844100731,2021-059AB,48904,6853.666,94.112,481.124,469.938,0,
GENERATED VIA SPACETRACK.ORG API,18 SPCS,48904,SPACEBEE-111,PAYLOAD,U,21059AB,2023/4/21 8:55,564128,15.30110769,0.0008156,97.5906,248.1815,115.0483,245.1604,0,999,10076,0.0013641,0.00039874,0,3891605,0 SPACEBEE-111,1 48904U 21059AB  23111.37168477  .00039874  00000-0  13641-2 0  9991,2 48904  97.5906 248.1815 0008156 115.0483 245.1604 15.30110769100763,2021-059AB,48904,6853.619,94.111,481.073,469.894,0,
GENERATED VIA SPACETRACK.ORG API,18 SPCS,48904,SPACEBEE-111,PAYLOAD,U,21059AB,2023/4/21 8:55,564128,15.30110769,0.0008156,97.5906,248.1815,115.0483,245.1604,0,999,10076,0.0013641,0.00039874,0,3891716,0 SPACEBEE-111,1 48904U 21059AB  23111.37168477  .00039874  00000-0  13641-2 0  9991,2 48904  97.5906 248.1815 0008156 115.0483 245.1604 15.30110769100763,2021-059AB,48904,6853.619,94.111,481.073,469.894,0,
GENERATED VIA SPACETRACK.ORG API,18 SPCS,48904,SPACEBEE-111,PAYLOAD,U,21059AB,2023/4/21 23:02,244896,15.30160178,0.000812,97.5908,248.7828,113.1057,247.1039,0,999,10085,0.0014238,0.00041696,0,3892071,0 SPACEBEE-111,1 48904U 21059AB  23111.96024589  .00041696  00000-0  14238-2 0  9999,2 48904  97.5908 248.7828 0008120 113.1057 247.1039 15.30160178100855,2021-059AB,48904,6853.471,94.108,480.901,469.771,0,
GENERATED VIA SPACETRACK.ORG API,18 SPCS,48904,SPACEBEE-111,PAYLOAD,U,21059AB,2023/4/22 22:35,260992,15.30241173,0.0007957,97.591,249.7854,109.6442,250.5657,0,999,10100,0.001261,0.00036987,0,3892371,0 SPACEBEE-111,1 48904U 21059AB  23112.94113728  .00036987  00000-0  12610-2 0  9991,2 48904  97.5910 249.7854 0007957 109.6442 250.5657 15.30241173101000,2021-059AB,48904,6853.229,94.103,480.547,469.641,0,
